{"type": "FeatureCollection", "features": [{"type": "Feature", "properties": {"addr:city": "Paris", "addr:housenumber": "17", "addr:postcode": "75004", "addr:street": "Rue des Archives", "amenity": "bar", "lgbtq": "primary", "name": "Open Caf\u00e9", "outdoor_seating": "yes", "survey:date": "2017-07-05", "toilets:wheelchair": "no", "wheelchair": "designated", "id": 599513255}, "geometry": {"type": "Point", "coordinates": [2.3550423, 48.8584562]}}, {"type": "Feature", "properties": {"addr:city": "Paris", "addr:housenumber": "15", "addr:postcode": "75004", "addr:street": "Rue des Archives", "amenity": "bar", "facebook": "https://www.facebook.com/cafecoxbarparis", "lgbtq": "primary", "lgbtq:men": "primary", "name": "Cox", "opening_hours": "Mo-Su 17:00-02:00", "smoking": "outside", "twitter": "cafecoxbarparis", "website": "http://cox.fr/", "id": 599513533}, "geometry": {"type": "Point", "coordinates": [2.3548214, 48.8582377]}}, {"type": "Feature", "properties": {"addr:city": "Paris", "amenity": "bar", "lgbtq": "primary", "name": "Le Raidd", "id": 599514799}, "geometry": {"type": "Point", "coordinates": [2.3534861, 48.8589115]}}, {"type": "Feature", "properties": {"addr:city": "Paris", "addr:housenumber": "10", "addr:postcode": "75004", "addr:street": "Rue de la Verrerie", "amenity": "bar", "lgbtq": "primary", "name": "Quetzal Bar", "phone": "+33 1 48 87 99 07", "website": "https://www.facebook.com/quetzalbarparis/", "id": 599515061}, "geometry": {"type": "Point", "coordinates": [2.3552063, 48.8572153]}}, {"type": "Feature", "properties": {"addr:housenumber": "33", "addr:postcode": "75004", "addr:street": "Rue de la Verrerie", "amenity": "bar", "name": "Le perchoir Marais", "name:fr": "Le perchoir Marais", "opening_hours": "Mo-Sa 20:00-02:00; Su 19:00-02:00", "source": "cadastre-dgi-fr source : Direction G\u00e9n\u00e9rale des Imp\u00f4ts - Cadastre. Mise \u00e0 jour : 2010", "website": "http://leperchoir.fr", "id": 700449087}, "geometry": {"type": "Point", "coordinates": [2.3539471, 48.8575589]}}, {"type": "Feature", "properties": {"addr:housenumber": "37", "addr:street": "Rue Vieille du Temple", "amenity": "bar", "name": "Yono's", "opening_hours": "Tu-Su 17:00-01:30", "phone": "+33 1 42 74 31 65", "source": "cadastre-dgi-fr source : Direction G\u00e9n\u00e9rale des Imp\u00f4ts - Cadastre. Mise \u00e0 jour : 2010", "id": 702751011}, "geometry": {"type": "Point", "coordinates": [2.3576815, 48.8577487]}}, {"type": "Feature", "properties": {"addr:housenumber": "4", "addr:street": "Rue du Bourg Tibourg", "amenity": "bar", "name": "Feria Caf\u00e9", "phone": "+33 1 42 72 43 99", "source": "cadastre-dgi-fr source : Direction G\u00e9n\u00e9rale des Imp\u00f4ts - Cadastre. Mise \u00e0 jour : 2010", "id": 702916141}, "geometry": {"type": "Point", "coordinates": [2.3558116, 48.8567788]}}, {"type": "Feature", "properties": {"addr:housenumber": "64", "amenity": "bar", "name": "Bodega 64", "phone": "+33 1 48 04 59 11", "source": "cadastre-dgi-fr source : Direction G\u00e9n\u00e9rale des Imp\u00f4ts - Cadastre. Mise \u00e0 jour : 2010", "id": 704819800}, "geometry": {"type": "Point", "coordinates": [2.3580795, 48.8554369]}}, {"type": "Feature", "properties": {"addr:housenumber": "20", "addr:postcode": "75004", "addr:street": "Rue Beautreillis", "amenity": "bar", "name": "Sherry Butt", "source": "cadastre-dgi-fr source : Direction G\u00e9n\u00e9rale des Imp\u00f4ts - Cadastre. Mise \u00e0 jour : 2010", "id": 705299975}, "geometry": {"type": "Point", "coordinates": [2.3640898, 48.853292]}}, {"type": "Feature", "properties": {"amenity": "bar", "name": "Les Souffleurs", "id": 1404449817}, "geometry": {"type": "Point", "coordinates": [2.3550993, 48.857093]}}, {"type": "Feature", "properties": {"addr:city": "Paris", "addr:housenumber": "127", "addr:postcode": "75004", "addr:street": "Rue Saint-Antoine", "amenity": "bar", "name": "Le Saint-Paul", "wheelchair": "no", "id": 2707103486}, "geometry": {"type": "Point", "coordinates": [2.360168, 48.8551659]}}, {"type": "Feature", "properties": {"addr:city": "Paris", "addr:housenumber": "1", "addr:postcode": "75003", "addr:street": "Place de Thorigny", "amenity": "bar", "brewery": "yes", "name": "Brewdog", "opening_hours": "Mo-We,Su 12:00-24:00; Th-Sa 12:00-02:00", "outdoor_seating": "yes", "website": "https://www.brewdog.com/bars/global/brewdog-lemarais", "wheelchair": "no", "id": 2772914972}, "geometry": {"type": "Point", "coordinates": [2.3621024, 48.8588994]}}, {"type": "Feature", "properties": {"amenity": "bar", "brewery": "tripel_karmeliet;Kwak;Cuv\u00e9e des trolls;Delirium;Queue de Charrue;La B\u00eate;Brooklyn;Belle Blonde", "name": "Le Rivolux", "id": 2997329281}, "geometry": {"type": "Point", "coordinates": [2.3595261, 48.8556943]}}, {"type": "Feature", "properties": {"amenity": "bar", "name": "La Chope des Compagnons", "id": 3181039761}, "geometry": {"type": "Point", "coordinates": [2.3538809, 48.8549571]}}, {"type": "Feature", "properties": {"amenity": "bar", "lgbtq": "primary", "name": "Freedj", "opening_hours": "Mo-Su 18:00-04:00", "wheelchair": "no", "id": 3653361134}, "geometry": {"type": "Point", "coordinates": [2.3548381, 48.8585639]}}, {"type": "Feature", "properties": {"addr:city": "Paris", "addr:housenumber": "16", "addr:postcode": "75004", "addr:street": "Rue Sainte-Croix de la Bretonnerie", "amenity": "bar", "name": "R\u00e9sistance", "phone": "+33 9 67 59 14 88", "id": 3653361137}, "geometry": {"type": "Point", "coordinates": [2.3567059, 48.8580893]}}, {"type": "Feature", "properties": {"amenity": "bar", "name": "La Favorite", "id": 3980462159}, "geometry": {"type": "Point", "coordinates": [2.3612812, 48.8552962]}}, {"type": "Feature", "properties": {"addr:city": "Paris", "addr:housenumber": "31", "addr:postcode": "75004", "addr:street": "Rue Vieille du Temple", "amenity": "bar", "name": "La belle Hortense", "name:en": "La belle Hortense", "id": 4360647189}, "geometry": {"type": "Point", "coordinates": [2.3574496, 48.8574972]}}, {"type": "Feature", "properties": {"amenity": "bar", "name": "Piment Caf\u00e9", "id": 4793389138}, "geometry": {"type": "Point", "coordinates": [2.3624526, 48.85641]}}, {"type": "Feature", "properties": {"addr:city": "Paris", "addr:housenumber": "6", "amenity": "bar", "name": "JOBO", "id": 6906768034}, "geometry": {"type": "Point", "coordinates": [2.3621611, 48.8554573]}}, {"type": "Feature", "properties": {"addr:city": "Paris", "addr:housenumber": "14", "addr:postcode": "75004", "addr:street": "Quai de l'H\u00f4tel de Ville", "amenity": "bar", "name": "Les Maquereaux", "opening_hours": "Tu-Sa 12:30-01:30, Su 12:30-21:00", "website": "https://www.lesmaquereaux.com/", "id": 7629676148}, "geometry": {"type": "Point", "coordinates": [2.3564597, 48.8534836]}}, {"type": "Feature", "properties": {"addr:city": "Paris", "addr:housenumber": "36", "addr:postcode": "75004", "addr:street": "Rue du Roi de Sicile", "amenity": "bar", "happy_hours": "16:30-22:00", "internet_access": "wlan", "name": "Klein", "opening_hours": "16:30-02:00", "smoking": "no", "id": 8025117221}, "geometry": {"type": "Point", "coordinates": [2.357999, 48.8563845]}}]}